HULIANWANG DIGUI-33     
1 64286U 25121D   26062.90667346  .00000064  00000+0  11561-3 0  9990
2 64286  86.4964  49.1121 0002086  78.6931 281.4438 13.24425338 36221
HULIANWANG DIGUI-34     
1 64287U 25121E   26062.97471622  .00000048  00000+0  77393-4 0  9996
2 64287  86.4942  49.0213 0002237  74.9102 285.2280 13.24424192 36231
HULIANWANG DIGUI-35     
1 64956U 25159A   26062.94117198  .00000067  00000+0  12226-3 0  9996
2 64956  86.4987 318.0059 0001296  71.0156 289.1118 13.24416983 29190
HULIANWANG DIGUI-36     
1 64957U 25159B   26062.93342727  .00000060  00000+0  10575-3 0  9992
2 64957  86.5007 318.0460 0001377  70.2388 289.8894 13.24419629 29197
HULIANWANG DIGUI-37     
1 64958U 25159C   26062.92588489  .00000042  00000+0  64805-4 0  9995
2 64958  86.4948 317.9113 0001457  68.2546 291.8743 13.24419204 29191
HULIANWANG DIGUI-38     
1 64959U 25159D   26062.91834992  .00000048  00000+0  77793-4 0  9994
2 64959  86.5007 318.0388 0001434  70.7131 289.4158 13.24419422 29193
HULIANWANG DIGUI-39     
1 64960U 25159E   26062.98633057  .00000060  00000+0  10572-3 0  9997
2 64960  86.4983 317.9560 0001439  71.8823 288.2468 13.24419596 29207
HULIANWANG DIGUI-40     
1 65043U 25162A   26062.91515792 -.00000072  00000+0  11186-3 0  9998
2 65043  49.9991 283.5413 0001011  69.0817 291.0164 13.29332076 29348
HULIANWANG DIGUI-41     
1 65044U 25162B   26062.90680595 -.00000056  00000+0  14652-3 0  9995
2 65044  50.0001 283.5151 0001057  69.2040 290.8945 13.29332488 29355
HULIANWANG DIGUI-42     
1 65045U 25162C   26062.97360333 -.00000060  00000+0  13889-3 0  9994
2 65045  49.9966 283.1405 0000993  70.5269 289.5711 13.29331873 29361
HULIANWANG DIGUI-43     
1 65046U 25162D   26062.96522997 -.00000067  00000+0  12320-3 0  9996
2 65046  49.9983 283.1286 0000990  69.5912 290.5066 13.29332864 29364
HULIANWANG DIGUI-44     
1 65047U 25162E   26062.95659221 -.00000078  00000+0  10010-3 0  9993
2 65047  50.0010 283.1312 0000782 348.6062  11.4793 13.29340415 29374
HULIANWANG DIGUI-45     
1 65048U 25162F   26062.94855713 -.00000077  00000+0  10200-3 0  9997
2 65048  50.0040 283.1429 0001046  69.2133 290.8852 13.29332742 29368
HULIANWANG DIGUI-46     
1 65049U 25162G   26062.94020141 -.00000074  00000+0  10822-3 0  9994
2 65049  50.0058 283.1319 0001045  71.7250 288.3735 13.29332706 29365
HULIANWANG DIGUI-47     
1 65050U 25162H   26062.93184501 -.00000073  00000+0  11058-3 0  9997
2 65050  50.0022 283.0267 0001022  72.5463 287.5521 13.29332579 29361
HULIANWANG DIGUI-48     
1 65051U 25162J   26062.92351284 -.00000075  00000+0  10593-3 0  9996
2 65051  50.0032 283.0004 0001011  70.8701 289.2281 13.29332070 29364
