[{"OBJECT_NAME":"HULIANWANG DIGUI-33","OBJECT_ID":"2025-121D","EPOCH":"2026-03-03T21:45:36.586944","MEAN_MOTION":13.24425338,"ECCENTRICITY":0.00020861,"INCLINATION":86.4964,"RA_OF_ASC_NODE":49.1121,"ARG_OF_PERICENTER":78.6931,"MEAN_ANOMALY":281.4438,"EPHEMERIS_TYPE":0,"CLASSIFICATION_TYPE":"U","NORAD_CAT_ID":64286,"ELEMENT_SET_NO":999,"REV_AT_EPOCH":3622,"BSTAR":0.00011561277,"MEAN_MOTION_DOT":6.4e-7,"MEAN_MOTION_DDOT":0},{"OBJECT_NAME":"HULIANWANG DIGUI-34","OBJECT_ID":"2025-121E","EPOCH":"2026-03-03T23:23:35.481408","MEAN_MOTION":13.24424192,"ECCENTRICITY":0.00022371,"INCLINATION":86.4942,"RA_OF_ASC_NODE":49.0213,"ARG_OF_PERICENTER":74.9102,"MEAN_ANOMALY":285.228,"EPHEMERIS_TYPE":0,"CLASSIFICATION_TYPE":"U","NORAD_CAT_ID":64287,"ELEMENT_SET_NO":999,"REV_AT_EPOCH":3623,"BSTAR":7.7393318e-5,"MEAN_MOTION_DOT":4.8e-7,"MEAN_MOTION_DDOT":0},{"OBJECT_NAME":"HULIANWANG DIGUI-35","OBJECT_ID":"2025-159A","EPOCH":"2026-03-03T22:35:17.259072","MEAN_MOTION":13.24416983,"ECCENTRICITY":0.00012962,"INCLINATION":86.4987,"RA_OF_ASC_NODE":318.0059,"ARG_OF_PERICENTER":71.0156,"MEAN_ANOMALY":289.1118,"EPHEMERIS_TYPE":0,"CLASSIFICATION_TYPE":"U","NORAD_CAT_ID":64956,"ELEMENT_SET_NO":999,"REV_AT_EPOCH":2919,"BSTAR":0.00012225788,"MEAN_MOTION_DOT":6.7e-7,"MEAN_MOTION_DDOT":0},{"OBJECT_NAME":"HULIANWANG DIGUI-36","OBJECT_ID":"2025-159B","EPOCH":"2026-03-03T22:24:08.116128","MEAN_MOTION":13.24419629,"ECCENTRICITY":0.00013777,"INCLINATION":86.5007,"RA_OF_ASC_NODE":318.046,"ARG_OF_PERICENTER":70.2388,"MEAN_ANOMALY":289.8894,"EPHEMERIS_TYPE":0,"CLASSIFICATION_TYPE":"U","NORAD_CAT_ID":64957,"ELEMENT_SET_NO":999,"REV_AT_EPOCH":2919,"BSTAR":0.00010574585,"MEAN_MOTION_DOT":6.0e-7,"MEAN_MOTION_DDOT":0},{"OBJECT_NAME":"HULIANWANG DIGUI-37","OBJECT_ID":"2025-159C","EPOCH":"2026-03-03T22:13:16.454496","MEAN_MOTION":13.24419204,"ECCENTRICITY":0.00014579,"INCLINATION":86.4948,"RA_OF_ASC_NODE":317.9113,"ARG_OF_PERICENTER":68.2546,"MEAN_ANOMALY":291.8743,"EPHEMERIS_TYPE":0,"CLASSIFICATION_TYPE":"U","NORAD_CAT_ID":64958,"ELEMENT_SET_NO":999,"REV_AT_EPOCH":2919,"BSTAR":6.4804572e-5,"MEAN_MOTION_DOT":4.2e-7,"MEAN_MOTION_DDOT":0},{"OBJECT_NAME":"HULIANWANG DIGUI-38","OBJECT_ID":"2025-159D","EPOCH":"2026-03-03T22:02:25.433088","MEAN_MOTION":13.24419422,"ECCENTRICITY":0.00014347,"INCLINATION":86.5007,"RA_OF_ASC_NODE":318.0388,"ARG_OF_PERICENTER":70.7131,"MEAN_ANOMALY":289.4158,"EPHEMERIS_TYPE":0,"CLASSIFICATION_TYPE":"U","NORAD_CAT_ID":64959,"ELEMENT_SET_NO":999,"REV_AT_EPOCH":2919,"BSTAR":7.7793241e-5,"MEAN_MOTION_DOT":4.8e-7,"MEAN_MOTION_DDOT":0},{"OBJECT_NAME":"HULIANWANG DIGUI-39","OBJECT_ID":"2025-159E","EPOCH":"2026-03-03T23:40:18.961248","MEAN_MOTION":13.24419596,"ECCENTRICITY":0.00014395,"INCLINATION":86.4983,"RA_OF_ASC_NODE":317.956,"ARG_OF_PERICENTER":71.8823,"MEAN_ANOMALY":288.2468,"EPHEMERIS_TYPE":0,"CLASSIFICATION_TYPE":"U","NORAD_CAT_ID":64960,"ELEMENT_SET_NO":999,"REV_AT_EPOCH":2920,"BSTAR":0.00010571686,"MEAN_MOTION_DOT":6.0e-7,"MEAN_MOTION_DDOT":0},{"OBJECT_NAME":"HULIANWANG DIGUI-40","OBJECT_ID":"2025-162A","EPOCH":"2026-03-03T21:57:49.644288","MEAN_MOTION":13.29332076,"ECCENTRICITY":0.00010117,"INCLINATION":49.9991,"RA_OF_ASC_NODE":283.5413,"ARG_OF_PERICENTER":69.0817,"MEAN_ANOMALY":291.0164,"EPHEMERIS_TYPE":0,"CLASSIFICATION_TYPE":"U","NORAD_CAT_ID":65043,"ELEMENT_SET_NO":999,"REV_AT_EPOCH":2934,"BSTAR":0.00011185843,"MEAN_MOTION_DOT":-7.2e-7,"MEAN_MOTION_DDOT":0},{"OBJECT_NAME":"HULIANWANG DIGUI-41","OBJECT_ID":"2025-162B","EPOCH":"2026-03-03T21:45:48.034080","MEAN_MOTION":13.29332488,"ECCENTRICITY":0.00010571,"INCLINATION":50.0001,"RA_OF_ASC_NODE":283.5151,"ARG_OF_PERICENTER":69.204,"MEAN_ANOMALY":290.8945,"EPHEMERIS_TYPE":0,"CLASSIFICATION_TYPE":"U","NORAD_CAT_ID":65044,"ELEMENT_SET_NO":999,"REV_AT_EPOCH":2935,"BSTAR":0.00014651709,"MEAN_MOTION_DOT":-5.6e-7,"MEAN_MOTION_DDOT":0},{"OBJECT_NAME":"HULIANWANG DIGUI-42","OBJECT_ID":"2025-162C","EPOCH":"2026-03-03T23:21:59.327712","MEAN_MOTION":13.29331873,"ECCENTRICITY":9.935e-5,"INCLINATION":49.9966,"RA_OF_ASC_NODE":283.1405,"ARG_OF_PERICENTER":70.5269,"MEAN_ANOMALY":289.5711,"EPHEMERIS_TYPE":0,"CLASSIFICATION_TYPE":"U","NORAD_CAT_ID":65045,"ELEMENT_SET_NO":999,"REV_AT_EPOCH":2936,"BSTAR":0.00013888778,"MEAN_MOTION_DOT":-6.0e-7,"MEAN_MOTION_DDOT":0},{"OBJECT_NAME":"HULIANWANG DIGUI-43","OBJECT_ID":"2025-162D","EPOCH":"2026-03-03T23:09:55.869408","MEAN_MOTION":13.29332864,"ECCENTRICITY":9.905e-5,"INCLINATION":49.9983,"RA_OF_ASC_NODE":283.1286,"ARG_OF_PERICENTER":69.5912,"MEAN_ANOMALY":290.5066,"EPHEMERIS_TYPE":0,"CLASSIFICATION_TYPE":"U","NORAD_CAT_ID":65046,"ELEMENT_SET_NO":999,"REV_AT_EPOCH":2936,"BSTAR":0.00012319778,"MEAN_MOTION_DOT":-6.7e-7,"MEAN_MOTION_DDOT":0},{"OBJECT_NAME":"HULIANWANG DIGUI-44","OBJECT_ID":"2025-162E","EPOCH":"2026-03-03T22:57:29.566944","MEAN_MOTION":13.29340415,"ECCENTRICITY":7.827e-5,"INCLINATION":50.001,"RA_OF_ASC_NODE":283.1312,"ARG_OF_PERICENTER":348.6062,"MEAN_ANOMALY":11.4793,"EPHEMERIS_TYPE":0,"CLASSIFICATION_TYPE":"U","NORAD_CAT_ID":65047,"ELEMENT_SET_NO":999,"REV_AT_EPOCH":2937,"BSTAR":0.00010010419,"MEAN_MOTION_DOT":-7.8e-7,"MEAN_MOTION_DDOT":0},{"OBJECT_NAME":"HULIANWANG DIGUI-45","OBJECT_ID":"2025-162F","EPOCH":"2026-03-03T22:45:55.336032","MEAN_MOTION":13.29332742,"ECCENTRICITY":0.00010465,"INCLINATION":50.004,"RA_OF_ASC_NODE":283.1429,"ARG_OF_PERICENTER":69.2133,"MEAN_ANOMALY":290.8852,"EPHEMERIS_TYPE":0,"CLASSIFICATION_TYPE":"U","NORAD_CAT_ID":65048,"ELEMENT_SET_NO":999,"REV_AT_EPOCH":2936,"BSTAR":0.00010200106,"MEAN_MOTION_DOT":-7.7e-7,"MEAN_MOTION_DDOT":0},{"OBJECT_NAME":"HULIANWANG DIGUI-46","OBJECT_ID":"2025-162G","EPOCH":"2026-03-03T22:33:53.401824","MEAN_MOTION":13.29332706,"ECCENTRICITY":0.0001045,"INCLINATION":50.0058,"RA_OF_ASC_NODE":283.1319,"ARG_OF_PERICENTER":71.725,"MEAN_ANOMALY":288.3735,"EPHEMERIS_TYPE":0,"CLASSIFICATION_TYPE":"U","NORAD_CAT_ID":65049,"ELEMENT_SET_NO":999,"REV_AT_EPOCH":2936,"BSTAR":0.00010821679,"MEAN_MOTION_DOT":-7.4e-7,"MEAN_MOTION_DDOT":0},{"OBJECT_NAME":"HULIANWANG DIGUI-47","OBJECT_ID":"2025-162H","EPOCH":"2026-03-03T22:21:51.408864","MEAN_MOTION":13.29332579,"ECCENTRICITY":0.00010228,"INCLINATION":50.0022,"RA_OF_ASC_NODE":283.0267,"ARG_OF_PERICENTER":72.5463,"MEAN_ANOMALY":287.5521,"EPHEMERIS_TYPE":0,"CLASSIFICATION_TYPE":"U","NORAD_CAT_ID":65050,"ELEMENT_SET_NO":999,"REV_AT_EPOCH":2936,"BSTAR":0.00011057852,"MEAN_MOTION_DOT":-7.3e-7,"MEAN_MOTION_DDOT":0},{"OBJECT_NAME":"HULIANWANG DIGUI-48","OBJECT_ID":"2025-162J","EPOCH":"2026-03-03T22:09:51.509376","MEAN_MOTION":13.2933207,"ECCENTRICITY":0.00010112,"INCLINATION":50.0032,"RA_OF_ASC_NODE":283.0004,"ARG_OF_PERICENTER":70.8701,"MEAN_ANOMALY":289.2281,"EPHEMERIS_TYPE":0,"CLASSIFICATION_TYPE":"U","NORAD_CAT_ID":65051,"ELEMENT_SET_NO":999,"REV_AT_EPOCH":2936,"BSTAR":0.0001059256,"MEAN_MOTION_DOT":-7.5e-7,"MEAN_MOTION_DDOT":0}]
